{
  "type": "FeatureCollection",
  "features": [
    {
      "type": "Feature",
      "properties": {
        "norad_id": 43057,
        "name": "GSAT0217 (GALILEO 21)",
        "group": "gnss",
        "lat": 16.420358665470438,
        "lon": 34.8630144978824,
        "alt_km": 23228.553386133437,
        "timestamp": "2025-12-10T07:43:55.022942+00:00",
        "meta_object_name": "GSAT0217 (GALILEO 21)",
        "meta_object_id": "2017-079C",
        "meta_epoch": "2025-12-08T07:14:55.853376",
        "meta_mean_motion": 1.70473894,
        "meta_eccentricity": 0.0002795,
        "meta_inclination": 55.1299,
        "meta_ra_of_asc_node": 226.758,
        "meta_arg_of_pericenter": 342.2851,
        "meta_mean_anomaly": 17.7961,
        "meta_ephemeris_type": 0,
        "meta_classification_type": "U",
        "meta_norad_cat_id": 43057,
        "meta_element_set_no": 999,
        "meta_rev_at_epoch": 4973,
        "meta_bstar": 0,
        "meta_mean_motion_dot": 1.7e-07,
        "meta_mean_motion_ddot": 0,
        "tle_line1": "1 43057U 17079C   25342.30203534  .00000017  00000+0  00000+0 0  9995",
        "tle_line2": "2 43057  55.1299 226.7580 0002795 342.2851  17.7961  1.70473894 49737"
      },
      "geometry": {
        "type": "Point",
        "coordinates": [
          34.8630144978824,
          16.420358665470438
        ]
      }
    },
    {
      "type": "Feature",
      "properties": {
        "norad_id": 43058,
        "name": "GSAT0218 (GALILEO 22)",
        "group": "gnss",
        "lat": 20.105900415140162,
        "lon": -118.51542406192057,
        "alt_km": 23218.114826888414,
        "timestamp": "2025-12-10T07:43:55.022954+00:00",
        "meta_object_name": "GSAT0218 (GALILEO 22)",
        "meta_object_id": "2017-079D",
        "meta_epoch": "2025-12-09T02:36:28.325952",
        "meta_mean_motion": 1.70473942,
        "meta_eccentricity": 0.00028125,
        "meta_inclination": 55.1298,
        "meta_ra_of_asc_node": 226.7335,
        "meta_arg_of_pericenter": 306.3632,
        "meta_mean_anomaly": 53.6978,
        "meta_ephemeris_type": 0,
        "meta_classification_type": "U",
        "meta_norad_cat_id": 43058,
        "meta_element_set_no": 999,
        "meta_rev_at_epoch": 4977,
        "meta_bstar": 0,
        "meta_mean_motion_dot": 1.2e-07,
        "meta_mean_motion_ddot": 0,
        "tle_line1": "1 43058U 17079D   25343.10866118  .00000012  00000+0  00000+0 0  9993",
        "tle_line2": "2 43058  55.1298 226.7335 0002812 306.3632  53.6978  1.70473942 49778"
      },
      "geometry": {
        "type": "Point",
        "coordinates": [
          -118.51542406192057,
          20.105900415140162
        ]
      }
    },
    {
      "type": "Feature",
      "properties": {
        "norad_id": 43107,
        "name": "BEIDOU-3 M7 (C27)",
        "group": "gnss",
        "lat": -11.43723579922234,
        "lon": -59.41616358445115,
        "alt_km": 21529.053555728377,
        "timestamp": "2025-12-10T07:43:55.022965+00:00",
        "meta_object_name": "BEIDOU-3 M7 (C27)",
        "meta_object_id": "2018-003A",
        "meta_epoch": "2025-12-09T06:27:46.625760",
        "meta_mean_motion": 1.86232164,
        "meta_eccentricity": 0.00025806,
        "meta_inclination": 54.4998,
        "meta_ra_of_asc_node": 308.9358,
        "meta_arg_of_pericenter": 71.0614,
        "meta_mean_anomaly": 288.9559,
        "meta_ephemeris_type": 0,
        "meta_classification_type": "U",
        "meta_norad_cat_id": 43107,
        "meta_element_set_no": 999,
        "meta_rev_at_epoch": 5381,
        "meta_bstar": 0,
        "meta_mean_motion_dot": -7.7e-07,
        "meta_mean_motion_ddot": 0,
        "tle_line1": "1 43107U 18003A   25343.26928965 -.00000077  00000+0  00000+0 0  9994",
        "tle_line2": "2 43107  54.4998 308.9358 0002580  71.0614 288.9559  1.86232164 53812"
      },
      "geometry": {
        "type": "Point",
        "coordinates": [
          -59.41616358445115,
          -11.43723579922234
        ]
      }
    },
    {
      "type": "Feature",
      "properties": {
        "norad_id": 43108,
        "name": "BEIDOU-3 M8 (C28)",
        "group": "gnss",
        "lat": 18.43240247047138,
        "lon": -37.3796186741954,
        "alt_km": 21530.367006251563,
        "timestamp": "2025-12-10T07:43:55.022978+00:00",
        "meta_object_name": "BEIDOU-3 M8 (C28)",
        "meta_object_id": "2018-003B",
        "meta_epoch": "2025-12-09T05:08:23.746272",
        "meta_mean_motion": 1.86230654,
        "meta_eccentricity": 0.00048225,
        "meta_inclination": 54.4927,
        "meta_ra_of_asc_node": 308.9205,
        "meta_arg_of_pericenter": 273.4107,
        "meta_mean_anomaly": 86.5234,
        "meta_ephemeris_type": 0,
        "meta_classification_type": "U",
        "meta_norad_cat_id": 43108,
        "meta_element_set_no": 999,
        "meta_rev_at_epoch": 5382,
        "meta_bstar": 0,
        "meta_mean_motion_dot": -7.7e-07,
        "meta_mean_motion_ddot": 0,
        "tle_line1": "1 43108U 18003B   25343.21416373 -.00000077  00000+0  00000+0 0  9995",
        "tle_line2": "2 43108  54.4927 308.9205 0004822 273.4107  86.5234  1.86230654 53827"
      },
      "geometry": {
        "type": "Point",
        "coordinates": [
          -37.3796186741954,
          18.43240247047138
        ]
      }
    },
    {
      "type": "Feature",
      "properties": {
        "norad_id": 43207,
        "name": "BEIDOU-3 M4 (C22)",
        "group": "gnss",
        "lat": 56.35437510329224,
        "lon": 153.31359608714277,
        "alt_km": 21518.701282842598,
        "timestamp": "2025-12-10T07:43:55.022989+00:00",
        "meta_object_name": "BEIDOU-3 M4 (C22)",
        "meta_object_id": "2018-018A",
        "meta_epoch": "2025-12-08T13:58:21.554688",
        "meta_mean_motion": 1.86230863,
        "meta_eccentricity": 0.000416,
        "meta_inclination": 56.4826,
        "meta_ra_of_asc_node": 69.4414,
        "meta_arg_of_pericenter": 11.0555,
        "meta_mean_anomaly": 348.9749,
        "meta_ephemeris_type": 0,
        "meta_classification_type": "U",
        "meta_norad_cat_id": 43207,
        "meta_element_set_no": 999,
        "meta_rev_at_epoch": 5319,
        "meta_bstar": 0,
        "meta_mean_motion_dot": -4.5e-07,
        "meta_mean_motion_ddot": 0,
        "tle_line1": "1 43207U 18018A   25342.58219392 -.00000045  00000+0  00000+0 0  9997",
        "tle_line2": "2 43207  56.4826  69.4414 0004160  11.0555 348.9749  1.86230863 53194"
      },
      "geometry": {
        "type": "Point",
        "coordinates": [
          153.31359608714277,
          56.35437510329224
        ]
      }
    },
    {
      "type": "Feature",
      "properties": {
        "norad_id": 43208,
        "name": "BEIDOU-3 M3 (C21)",
        "group": "gnss",
        "lat": 33.909129136241454,
        "lon": 95.81216597500679,
        "alt_km": 21522.206858988837,
        "timestamp": "2025-12-10T07:43:55.023002+00:00",
        "meta_object_name": "BEIDOU-3 M3 (C21)",
        "meta_object_id": "2018-018B",
        "meta_epoch": "2025-12-09T04:27:22.129920",
        "meta_mean_motion": 1.86231192,
        "meta_eccentricity": 0.0006468,
        "meta_inclination": 56.4827,
        "meta_ra_of_asc_node": 69.4258,
        "meta_arg_of_pericenter": 317.3873,
        "meta_mean_anomaly": 42.5846,
        "meta_ephemeris_type": 0,
        "meta_classification_type": "U",
        "meta_norad_cat_id": 43208,
        "meta_element_set_no": 999,
        "meta_rev_at_epoch": 5320,
        "meta_bstar": 0,
        "meta_mean_motion_dot": -4.7e-07,
        "meta_mean_motion_ddot": 0,
        "tle_line1": "1 43208U 18018B   25343.18567280 -.00000047  00000+0  00000+0 0  9999",
        "tle_line2": "2 43208  56.4827  69.4258 0006468 317.3873  42.5846  1.86231192 53203"
      },
      "geometry": {
        "type": "Point",
        "coordinates": [
          95.81216597500679,
          33.909129136241454
        ]
      }
    },
    {
      "type": "Feature",
      "properties": {
        "norad_id": 43245,
        "name": "BEIDOU-3 M9 (C29)",
        "group": "gnss",
        "lat": -52.38433792276546,
        "lon": -165.00869757068742,
        "alt_km": 21529.577502089644,
        "timestamp": "2025-12-10T07:43:55.023013+00:00",
        "meta_object_name": "BEIDOU-3 M9 (C29)",
        "meta_object_id": "2018-029A",
        "meta_epoch": "2025-12-09T09:38:36.109248",
        "meta_mean_motion": 1.86227964,
        "meta_eccentricity": 0.00016746,
        "meta_inclination": 54.3687,
        "meta_ra_of_asc_node": 306.5834,
        "meta_arg_of_pericenter": 274.0787,
        "meta_mean_anomaly": 85.8921,
        "meta_ephemeris_type": 0,
        "meta_classification_type": "U",
        "meta_norad_cat_id": 43245,
        "meta_element_set_no": 999,
        "meta_rev_at_epoch": 5236,
        "meta_bstar": 0,
        "meta_mean_motion_dot": -7.6e-07,
        "meta_mean_motion_ddot": 0,
        "tle_line1": "1 43245U 18029A   25343.40180682 -.00000076  00000+0  00000+0 0  9996",
        "tle_line2": "2 43245  54.3687 306.5834 0001674 274.0787  85.8921  1.86227964 52369"
      },
      "geometry": {
        "type": "Point",
        "coordinates": [
          -165.00869757068742,
          -52.38433792276546
        ]
      }
    }
  ]
}